start=new Date('2023-03-06T00:00:00.000Z').valueOf();
sats=[{"MEAN_MOTION_DOT":"0.00008428","MEAN_ELEMENT_THEORY":"SGP4","SEMIMAJOR_AXIS":"6925.364","DECAY_DATE":null,"ECCENTRICITY":"0.00019130","TLE_LINE1":"1 46565U 20070AK  23064.67231539  .00008428  00000-0  58411-3 0  9990","EPOCH":"2023-03-05T16:08:08.049696","REF_FRAME":"TEME","APOAPSIS":"548.554","FILE":"3852256","OBJECT_ID":"2020-070AK","NORAD_CAT_ID":"46565","CENTER_NAME":"EARTH","PERIAPSIS":"545.905","INCLINATION":"53.0540","GP_ID":"227579813","OBJECT_NAME":"STARLINK-1735","RA_OF_ASC_NODE":"54.7845","LAUNCH_DATE":"2020-10-06","COUNTRY_CODE":"US","MEAN_MOTION":"15.06394821","EPHEMERIS_TYPE":"0","PERIOD":"95.592","MEAN_ANOMALY":"268.1766","RCS_SIZE":"LARGE","MEAN_MOTION_DDOT":"0.0000000000000","SITE":"AFETR","CLASSIFICATION_TYPE":"U","BSTAR":"0.00058411000000","TLE_LINE2":"2 46565  53.0540  54.7845 0001913  91.9442 268.1766 15.06394821133980","ARG_OF_PERICENTER":"91.9442","OBJECT_TYPE":"PAYLOAD","TIME_SYSTEM":"UTC","ELEMENT_SET_NO":"999","REV_AT_EPOCH":"13398"},{"MEAN_MOTION_DDOT":"0.0000000000000","SITE":"AFETR","CLASSIFICATION_TYPE":"U","EPHEMERIS_TYPE":"0","PERIOD":"95.592","MEAN_ANOMALY":"283.5063","RCS_SIZE":"LARGE","TLE_LINE2":"2 46566  53.0539  54.8481 0001219  76.6061 283.5063 15.06396187133980","OBJECT_TYPE":"PAYLOAD","ARG_OF_PERICENTER":"76.6061","TIME_SYSTEM":"UTC","ELEMENT_SET_NO":"999","REV_AT_EPOCH":"13398","BSTAR":"0.00103380000000","ECCENTRICITY":"0.00012190","TLE_LINE1":"1 46566U 20070AL  23064.65757033  .00015149  00000-0  10338-2 0  9994","EPOCH":"2023-03-05T15:46:54.076512","REF_FRAME":"TEME","APOAPSIS":"548.069","FILE":"3852256","OBJECT_ID":"2020-070AL","MEAN_MOTION_DOT":"0.00015149","SEMIMAJOR_AXIS":"6925.360","MEAN_ELEMENT_THEORY":"SGP4","DECAY_DATE":null,"OBJECT_NAME":"STARLINK-1740","RA_OF_ASC_NODE":"54.8481","LAUNCH_DATE":"2020-10-06","MEAN_MOTION":"15.06396187","COUNTRY_CODE":"US","NORAD_CAT_ID":"46566","CENTER_NAME":"EARTH","PERIAPSIS":"546.381","INCLINATION":"53.0539","GP_ID":"227578105"},{"MEAN_ELEMENT_THEORY":"SGP4","SEMIMAJOR_AXIS":"6925.363","DECAY_DATE":null,"MEAN_MOTION_DOT":"0.00008633","EPOCH":"2023-03-05T16:29:21.901920","REF_FRAME":"TEME","APOAPSIS":"548.209","FILE":"3852256","OBJECT_ID":"2020-070AM","TLE_LINE1":"1 46567U 20070AM  23064.68705905  .00008633  00000-0  59785-3 0  9999","ECCENTRICITY":"0.00014160","PERIAPSIS":"546.247","INCLINATION":"53.0542","GP_ID":"227578355","NORAD_CAT_ID":"46567","CENTER_NAME":"EARTH","RA_OF_ASC_NODE":"54.7232","LAUNCH_DATE":"2020-10-06","COUNTRY_CODE":"US","MEAN_MOTION":"15.06395310","OBJECT_NAME":"STARLINK-1741","RCS_SIZE":"LARGE","EPHEMERIS_TYPE":"0","PERIOD":"95.592","MEAN_ANOMALY":"267.4327","SITE":"AFETR","CLASSIFICATION_TYPE":"U","MEAN_MOTION_DDOT":"0.0000000000000","BSTAR":"0.00059785000000","ARG_OF_PERICENTER":"92.6825","TLE_LINE2":"2 46567  53.0542  54.7232 0001416  92.6825 267.4327 15.06395310133995","OBJECT_TYPE":"PAYLOAD","TIME_SYSTEM":"UTC","ELEMENT_SET_NO":"999","REV_AT_EPOCH":"13399"},{"PERIAPSIS":"546.504","INCLINATION":"53.0517","GP_ID":"227579577","NORAD_CAT_ID":"46569","CENTER_NAME":"EARTH","RA_OF_ASC_NODE":"54.6536","LAUNCH_DATE":"2020-10-06","MEAN_MOTION":"15.06405557","COUNTRY_CODE":"US","OBJECT_NAME":"STARLINK-1747","SEMIMAJOR_AXIS":"6925.332","MEAN_ELEMENT_THEORY":"SGP4","DECAY_DATE":null,"MEAN_MOTION_DOT":"0.00026356","EPOCH":"2023-03-05T16:50:35.699712","REF_FRAME":"TEME","APOAPSIS":"547.889","FILE":"3852256","OBJECT_ID":"2020-070AP","TLE_LINE1":"1 46569U 20070AP  23064.70180208  .00026356  00000-0  17814-2 0  9995","ECCENTRICITY":"0.00010000","BSTAR":"0.00178140000000","OBJECT_TYPE":"PAYLOAD","TLE_LINE2":"2 46569  53.0517  54.6536 0001000  59.8883 300.2205 15.06405557133999","TIME_SYSTEM":"UTC","ARG_OF_PERICENTER":"59.8883","ELEMENT_SET_NO":"999","REV_AT_EPOCH":"13399","RCS_SIZE":"LARGE","EPHEMERIS_TYPE":"0","PERIOD":"95.592","MEAN_ANOMALY":"300.2205","SITE":"AFETR","CLASSIFICATION_TYPE":"U","MEAN_MOTION_DDOT":"0.0000000000000"},{"SITE":"AFETR","CLASSIFICATION_TYPE":"U","MEAN_MOTION_DDOT":"0.0000000000000","RCS_SIZE":"LARGE","EPHEMERIS_TYPE":"0","PERIOD":"94.717","MEAN_ANOMALY":"287.5162","TLE_LINE2":"2 46570  53.0546  45.1991 0004081  72.6280 287.5162 15.20321864134094","OBJECT_TYPE":"PAYLOAD","TIME_SYSTEM":"UTC","ARG_OF_PERICENTER":"72.6280","ELEMENT_SET_NO":"999","REV_AT_EPOCH":"13409","BSTAR":"0.00116220000000","EPOCH":"2023-03-05T08:25:56.392896","REF_FRAME":"TEME","APOAPSIS":"507.680","FILE":"3851939","OBJECT_ID":"2020-070AQ","ECCENTRICITY":"0.00040810","TLE_LINE1":"1 46570U 20070AQ  23064.35134714  .00025354  00000-0  11622-2 0  9997","SEMIMAJOR_AXIS":"6883.006","MEAN_ELEMENT_THEORY":"SGP4","DECAY_DATE":null,"MEAN_MOTION_DOT":"0.00025354","RA_OF_ASC_NODE":"45.1991","LAUNCH_DATE":"2020-10-06","MEAN_MOTION":"15.20321864","COUNTRY_CODE":"US","OBJECT_NAME":"STARLINK-1748","PERIAPSIS":"502.062","INCLINATION":"53.0546","GP_ID":"227543912","NORAD_CAT_ID":"46570","CENTER_NAME":"EARTH"},{"MEAN_MOTION_DDOT":"0.0000000000000","CLASSIFICATION_TYPE":"U","SITE":"AFETR","EPHEMERIS_TYPE":"0","PERIOD":"95.592","MEAN_ANOMALY":"263.1475","RCS_SIZE":"LARGE","ELEMENT_SET_NO":"999","TLE_LINE2":"2 46572  53.0548  74.4764 0001315  96.9664 263.1475 15.06405620133715","ARG_OF_PERICENTER":"96.9664","OBJECT_TYPE":"PAYLOAD","TIME_SYSTEM":"UTC","REV_AT_EPOCH":"13371","BSTAR":"0.00116670000000","TLE_LINE1":"1 46572U 20070AS  23064.73955770  .00017142  00000-0  11667-2 0  9999","ECCENTRICITY":"0.00013150","APOAPSIS":"548.107","EPOCH":"2023-03-05T17:44:57.785280","REF_FRAME":"TEME","OBJECT_ID":"2020-070AS","FILE":"3852256","MEAN_MOTION_DOT":"0.00017142","SEMIMAJOR_AXIS":"6925.331","MEAN_ELEMENT_THEORY":"SGP4","DECAY_DATE":null,"OBJECT_NAME":"STARLINK-1531","RA_OF_ASC_NODE":"74.4764","MEAN_MOTION":"15.06405620","COUNTRY_CODE":"US","LAUNCH_DATE":"2020-10-06","NORAD_CAT_ID":"46572","CENTER_NAME":"EARTH","PERIAPSIS":"546.286","GP_ID":"227578583","INCLINATION":"53.0548"},{"BSTAR":"0.00176590000000","ELEMENT_SET_NO":"999","TLE_LINE2":"2 46573  53.0525  30.3255 0004988  92.6979 285.6013 15.60680503  1309","TIME_SYSTEM":"UTC","OBJECT_TYPE":"PAYLOAD","ARG_OF_PERICENTER":"92.6979","REV_AT_EPOCH":"130","PERIOD":"92.267","EPHEMERIS_TYPE":"0","MEAN_ANOMALY":"285.6013","RCS_SIZE":"LARGE","MEAN_MOTION_DDOT":"0.0000000000000","CLASSIFICATION_TYPE":"U","SITE":"AFETR","NORAD_CAT_ID":"46573","CENTER_NAME":"EARTH","PERIAPSIS":"382.318","GP_ID":"227578833","INCLINATION":"53.0525","OBJECT_NAME":"STARLINK-1650","RA_OF_ASC_NODE":"30.3255","MEAN_MOTION":"15.60680503","COUNTRY_CODE":"US","LAUNCH_DATE":"2020-10-06","MEAN_MOTION_DOT":"0.00151577","SEMIMAJOR_AXIS":"6763.827","MEAN_ELEMENT_THEORY":"SGP4","DECAY_DATE":null,"TLE_LINE1":"1 46573U 20070AT  23064.91667824  .00151577  00000-0  17659-2 0  9998","ECCENTRICITY":"0.00049880","APOAPSIS":"389.066","EPOCH":"2023-03-05T22:00:00.999936","REF_FRAME":"TEME","OBJECT_ID":"2020-070AT","FILE":"3852256"},{"SITE":"AFETR","CLASSIFICATION_TYPE":"U","MEAN_MOTION_DDOT":"0.0000000000000","RCS_SIZE":"LARGE","MEAN_ANOMALY":"272.2384","EPHEMERIS_TYPE":"0","PERIOD":"95.592","REV_AT_EPOCH":"13392","OBJECT_TYPE":"PAYLOAD","TLE_LINE2":"2 46574  53.0531  59.6501 0001421  87.8768 272.2384 15.06397961133926","ARG_OF_PERICENTER":"87.8768","TIME_SYSTEM":"UTC","ELEMENT_SET_NO":"999","BSTAR":"0.00140670000000","FILE":"3852256","OBJECT_ID":"2020-070AU","EPOCH":"2023-03-05T16:52:35.285952","REF_FRAME":"TEME","APOAPSIS":"548.204","ECCENTRICITY":"0.00014210","TLE_LINE1":"1 46574U 20070AU  23064.70318618  .00020732  00000-0  14067-2 0  9998","DECAY_DATE":null,"SEMIMAJOR_AXIS":"6925.355","MEAN_ELEMENT_THEORY":"SGP4","MEAN_MOTION_DOT":"0.00020732","LAUNCH_DATE":"2020-10-06","COUNTRY_CODE":"US","MEAN_MOTION":"15.06397961","RA_OF_ASC_NODE":"59.6501","OBJECT_NAME":"STARLINK-1660","INCLINATION":"53.0531","GP_ID":"227579101","PERIAPSIS":"546.236","CENTER_NAME":"EARTH","NORAD_CAT_ID":"46574"},{"CLASSIFICATION_TYPE":"U","SITE":"AFETR","MEAN_MOTION_DDOT":"0.0000000000000","RCS_SIZE":"LARGE","PERIOD":"95.588","EPHEMERIS_TYPE":"0","MEAN_ANOMALY":"257.2279","ELEMENT_SET_NO":"999","OBJECT_TYPE":"PAYLOAD","TLE_LINE2":"2 46575  53.0540  36.4892 0001019 102.8823 257.2279 15.06461562134203","TIME_SYSTEM":"UTC","ARG_OF_PERICENTER":"102.8823","REV_AT_EPOCH":"13420","BSTAR":"0.00290990000000","APOAPSIS":"547.731","EPOCH":"2023-03-05T07:04:04.888128","REF_FRAME":"TEME","OBJECT_ID":"2020-070AV","FILE":"3851939","TLE_LINE1":"1 46575U 20070AV  23064.29450102  .00043401  00000-0  29099-2 0  9997","ECCENTRICITY":"0.00010190","MEAN_ELEMENT_THEORY":"SGP4","SEMIMAJOR_AXIS":"6925.160","DECAY_DATE":null,"MEAN_MOTION_DOT":"0.00043401","RA_OF_ASC_NODE":"36.4892","COUNTRY_CODE":"US","MEAN_MOTION":"15.06461562","LAUNCH_DATE":"2020-10-06","OBJECT_NAME":"STARLINK-1675","PERIAPSIS":"546.319","GP_ID":"227544411","INCLINATION":"53.0540","NORAD_CAT_ID":"46575","CENTER_NAME":"EARTH"},{"MEAN_MOTION_DOT":"0.00012776","MEAN_ELEMENT_THEORY":"SGP4","SEMIMAJOR_AXIS":"6925.372","DECAY_DATE":null,"TLE_LINE1":"1 46576U 20070AW  23064.69581401  .00012776  00000-0  87521-3 0  9995","ECCENTRICITY":"0.00014030","APOAPSIS":"548.208","EPOCH":"2023-03-05T16:41:58.330464","REF_FRAME":"TEME","OBJECT_ID":"2020-070AW","FILE":"3852256","NORAD_CAT_ID":"46576","CENTER_NAME":"EARTH","PERIAPSIS":"546.265","GP_ID":"227578106","INCLINATION":"53.0541","OBJECT_NAME":"STARLINK-1677","RA_OF_ASC_NODE":"59.6805","MEAN_MOTION":"15.06392468","COUNTRY_CODE":"US","LAUNCH_DATE":"2020-10-06","EPHEMERIS_TYPE":"0","PERIOD":"95.593","MEAN_ANOMALY":"271.8152","RCS_SIZE":"LARGE","MEAN_MOTION_DDOT":"0.0000000000000","CLASSIFICATION_TYPE":"U","SITE":"AFETR","BSTAR":"0.00087521000000","ELEMENT_SET_NO":"999","TLE_LINE2":"2 46576  53.0541  59.6805 0001403  88.2997 271.8152 15.06392468133920","OBJECT_TYPE":"PAYLOAD","TIME_SYSTEM":"UTC","ARG_OF_PERICENTER":"88.2997","REV_AT_EPOCH":"13392"}];
